{"fetched_at":"2026-07-21T07:06:31.784Z","source":"https://celestrak.org/NORAD/elements/gp.php?GROUP=qianfan&FORMAT=JSON","constellation":"qianfan","records":[{"OBJECT_NAME":"QIANFAN-185","OBJECT_ID":"2026-125C","EPOCH":"2026-07-20T21:12:15.720192","CLASSIFICATION_TYPE":"U","MEAN_MOTION":13.96037045,"ECCENTRICITY":0.0024229,"INCLINATION":88.9936,"RA_OF_ASC_NODE":276.6684,"ARG_OF_PERICENTER":58.1545,"MEAN_ANOMALY":302.1985,"EPHEMERIS_TYPE":0,"NORAD_CAT_ID":69403,"ELEMENT_SET_NO":999,"REV_AT_EPOCH":645,"BSTAR":-1.657036,"MEAN_MOTION_DOT":-0.02109727,"MEAN_MOTION_DDOT":0},{"OBJECT_NAME":"QIANFAN-186","OBJECT_ID":"2026-125D","EPOCH":"2026-07-20T22:10:24.268800","CLASSIFICATION_TYPE":"U","MEAN_MOTION":13.82065562,"ECCENTRICITY":0.00224341,"INCLINATION":88.9934,"RA_OF_ASC_NODE":276.6743,"ARG_OF_PERICENTER":76.4169,"MEAN_ANOMALY":283.9496,"EPHEMERIS_TYPE":0,"NORAD_CAT_ID":69404,"ELEMENT_SET_NO":999,"REV_AT_EPOCH":645,"BSTAR":-2.0200299,"MEAN_MOTION_DOT":-0.02028159,"MEAN_MOTION_DDOT":0},{"OBJECT_NAME":"QIANFAN-187","OBJECT_ID":"2026-125E","EPOCH":"2026-07-20T21:26:18.333600","CLASSIFICATION_TYPE":"U","MEAN_MOTION":13.82613406,"ECCENTRICITY":0.00257059,"INCLINATION":88.994,"RA_OF_ASC_NODE":276.6688,"ARG_OF_PERICENTER":69.576,"MEAN_ANOMALY":290.8166,"EPHEMERIS_TYPE":0,"NORAD_CAT_ID":69405,"ELEMENT_SET_NO":999,"REV_AT_EPOCH":645,"BSTAR":-1.8230054,"MEAN_MOTION_DOT":-0.01839799,"MEAN_MOTION_DDOT":0},{"OBJECT_NAME":"QIANFAN-188","OBJECT_ID":"2026-125F","EPOCH":"2026-07-20T22:17:22.141536","CLASSIFICATION_TYPE":"U","MEAN_MOTION":13.86157641,"ECCENTRICITY":0.00194337,"INCLINATION":88.9929,"RA_OF_ASC_NODE":276.6541,"ARG_OF_PERICENTER":61.5154,"MEAN_ANOMALY":298.7971,"EPHEMERIS_TYPE":0,"NORAD_CAT_ID":69406,"ELEMENT_SET_NO":999,"REV_AT_EPOCH":646,"BSTAR":-1.9718442,"MEAN_MOTION_DOT":-0.02114644,"MEAN_MOTION_DDOT":0},{"OBJECT_NAME":"QIANFAN-189","OBJECT_ID":"2026-125G","EPOCH":"2026-07-20T22:41:39.065856","CLASSIFICATION_TYPE":"U","MEAN_MOTION":13.84669234,"ECCENTRICITY":0.0022741,"INCLINATION":88.9936,"RA_OF_ASC_NODE":276.6585,"ARG_OF_PERICENTER":70.4701,"MEAN_ANOMALY":289.8923,"EPHEMERIS_TYPE":0,"NORAD_CAT_ID":69407,"ELEMENT_SET_NO":999,"REV_AT_EPOCH":645,"BSTAR":-1.6662776,"MEAN_MOTION_DOT":-0.0174683,"MEAN_MOTION_DDOT":0},{"OBJECT_NAME":"QIANFAN-190","OBJECT_ID":"2026-125H","EPOCH":"2026-07-20T20:44:45.429216","CLASSIFICATION_TYPE":"U","MEAN_MOTION":13.87018038,"ECCENTRICITY":0.00170492,"INCLINATION":88.9936,"RA_OF_ASC_NODE":276.6656,"ARG_OF_PERICENTER":64.8973,"MEAN_ANOMALY":295.3966,"EPHEMERIS_TYPE":0,"NORAD_CAT_ID":69408,"ELEMENT_SET_NO":999,"REV_AT_EPOCH":645,"BSTAR":-1.8276633,"MEAN_MOTION_DOT":-0.01996522,"MEAN_MOTION_DDOT":0},{"OBJECT_NAME":"QIANFAN-191","OBJECT_ID":"2026-125J","EPOCH":"2026-07-20T18:42:16.120800","CLASSIFICATION_TYPE":"U","MEAN_MOTION":13.84736181,"ECCENTRICITY":0.00212801,"INCLINATION":88.9934,"RA_OF_ASC_NODE":276.6712,"ARG_OF_PERICENTER":65.2574,"MEAN_ANOMALY":295.0807,"EPHEMERIS_TYPE":0,"NORAD_CAT_ID":69409,"ELEMENT_SET_NO":999,"REV_AT_EPOCH":644,"BSTAR":-1.8947045,"MEAN_MOTION_DOT":-0.01992384,"MEAN_MOTION_DDOT":0},{"OBJECT_NAME":"QIANFAN-192","OBJECT_ID":"2026-125K","EPOCH":"2026-07-20T21:52:02.888256","CLASSIFICATION_TYPE":"U","MEAN_MOTION":13.88380533,"ECCENTRICITY":0.00207742,"INCLINATION":88.9946,"RA_OF_ASC_NODE":276.6536,"ARG_OF_PERICENTER":59.2453,"MEAN_ANOMALY":301.0761,"EPHEMERIS_TYPE":0,"NORAD_CAT_ID":69410,"ELEMENT_SET_NO":999,"REV_AT_EPOCH":646,"BSTAR":0.000016050145,"MEAN_MOTION_DOT":3.3e-7,"MEAN_MOTION_DDOT":0},{"OBJECT_NAME":"QIANFAN-193","OBJECT_ID":"2026-125L","EPOCH":"2026-07-20T21:40:11.551008","CLASSIFICATION_TYPE":"U","MEAN_MOTION":13.84874152,"ECCENTRICITY":0.00211582,"INCLINATION":88.9939,"RA_OF_ASC_NODE":276.652,"ARG_OF_PERICENTER":70.6103,"MEAN_ANOMALY":289.7352,"EPHEMERIS_TYPE":0,"NORAD_CAT_ID":69411,"ELEMENT_SET_NO":999,"REV_AT_EPOCH":646,"BSTAR":-1.7496508,"MEAN_MOTION_DOT":-0.01833627,"MEAN_MOTION_DDOT":0},{"OBJECT_NAME":"QIANFAN-194","OBJECT_ID":"2026-125M","EPOCH":"2026-07-20T21:30:22.637376","CLASSIFICATION_TYPE":"U","MEAN_MOTION":13.85409104,"ECCENTRICITY":0.00198532,"INCLINATION":88.9939,"RA_OF_ASC_NODE":276.6499,"ARG_OF_PERICENTER":68.2606,"MEAN_ANOMALY":292.0675,"EPHEMERIS_TYPE":0,"NORAD_CAT_ID":69412,"ELEMENT_SET_NO":999,"REV_AT_EPOCH":645,"BSTAR":-1.7147599,"MEAN_MOTION_DOT":-0.01814511,"MEAN_MOTION_DDOT":0},{"OBJECT_NAME":"QIANFAN-195","OBJECT_ID":"2026-125N","EPOCH":"2026-07-20T22:17:13.413408","CLASSIFICATION_TYPE":"U","MEAN_MOTION":13.89430401,"ECCENTRICITY":0.00198127,"INCLINATION":88.9933,"RA_OF_ASC_NODE":276.6365,"ARG_OF_PERICENTER":81.2203,"MEAN_ANOMALY":279.1213,"EPHEMERIS_TYPE":0,"NORAD_CAT_ID":69413,"ELEMENT_SET_NO":999,"REV_AT_EPOCH":647,"BSTAR":-1.7824795,"MEAN_MOTION_DOT":-0.02027957,"MEAN_MOTION_DDOT":0},{"OBJECT_NAME":"QIANFAN-196","OBJECT_ID":"2026-125P","EPOCH":"2026-07-20T20:43:00.605280","CLASSIFICATION_TYPE":"U","MEAN_MOTION":13.86953724,"ECCENTRICITY":0.00195913,"INCLINATION":88.9939,"RA_OF_ASC_NODE":276.6453,"ARG_OF_PERICENTER":66.4863,"MEAN_ANOMALY":293.8364,"EPHEMERIS_TYPE":0,"NORAD_CAT_ID":69414,"ELEMENT_SET_NO":999,"REV_AT_EPOCH":646,"BSTAR":-1.5974168,"MEAN_MOTION_DOT":-0.01740616,"MEAN_MOTION_DDOT":0},{"OBJECT_NAME":"QIANFAN-197","OBJECT_ID":"2026-125Q","EPOCH":"2026-07-20T22:08:31.332768","CLASSIFICATION_TYPE":"U","MEAN_MOTION":13.89268746,"ECCENTRICITY":0.00156168,"INCLINATION":88.9929,"RA_OF_ASC_NODE":276.6357,"ARG_OF_PERICENTER":76.264,"MEAN_ANOMALY":284.027,"EPHEMERIS_TYPE":0,"NORAD_CAT_ID":69415,"ELEMENT_SET_NO":999,"REV_AT_EPOCH":646,"BSTAR":-1.7855224,"MEAN_MOTION_DOT":-0.020248,"MEAN_MOTION_DDOT":0},{"OBJECT_NAME":"QIANFAN-198","OBJECT_ID":"2026-125R","EPOCH":"2026-07-20T20:43:09.980544","CLASSIFICATION_TYPE":"U","MEAN_MOTION":13.87522968,"ECCENTRICITY":0.00165084,"INCLINATION":88.9938,"RA_OF_ASC_NODE":276.6462,"ARG_OF_PERICENTER":60.9984,"MEAN_ANOMALY":299.284,"EPHEMERIS_TYPE":0,"NORAD_CAT_ID":69416,"ELEMENT_SET_NO":999,"REV_AT_EPOCH":646,"BSTAR":-1.6659029,"MEAN_MOTION_DOT":-0.01825782,"MEAN_MOTION_DDOT":0},{"OBJECT_NAME":"QIANFAN-199","OBJECT_ID":"2026-125S","EPOCH":"2026-07-20T17:26:07.837440","CLASSIFICATION_TYPE":"U","MEAN_MOTION":13.92220347,"ECCENTRICITY":0.00214551,"INCLINATION":88.9942,"RA_OF_ASC_NODE":276.645,"ARG_OF_PERICENTER":55.3074,"MEAN_ANOMALY":305.0118,"EPHEMERIS_TYPE":0,"NORAD_CAT_ID":69417,"ELEMENT_SET_NO":999,"REV_AT_EPOCH":645,"BSTAR":-1.5117799,"MEAN_MOTION_DOT":-0.01799631,"MEAN_MOTION_DDOT":0},{"OBJECT_NAME":"QIANFAN-200","OBJECT_ID":"2026-125T","EPOCH":"2026-07-20T22:22:33.219552","CLASSIFICATION_TYPE":"U","MEAN_MOTION":13.82834644,"ECCENTRICITY":0.00188161,"INCLINATION":88.9934,"RA_OF_ASC_NODE":276.6554,"ARG_OF_PERICENTER":79.5129,"MEAN_ANOMALY":280.8159,"EPHEMERIS_TYPE":0,"NORAD_CAT_ID":69418,"ELEMENT_SET_NO":999,"REV_AT_EPOCH":646,"BSTAR":-1.8044516,"MEAN_MOTION_DOT":-0.01826716,"MEAN_MOTION_DDOT":0},{"OBJECT_NAME":"QIANFAN-201","OBJECT_ID":"2026-153A","EPOCH":"2026-07-20T22:22:53.976288","CLASSIFICATION_TYPE":"U","MEAN_MOTION":14.22094203,"ECCENTRICITY":0.00084213,"INCLINATION":88.9929,"RA_OF_ASC_NODE":358.387,"ARG_OF_PERICENTER":158.5346,"MEAN_ANOMALY":201.62,"EPHEMERIS_TYPE":0,"NORAD_CAT_ID":69800,"ELEMENT_SET_NO":999,"REV_AT_EPOCH":236,"BSTAR":0.000025872879,"MEAN_MOTION_DOT":7.2e-7,"MEAN_MOTION_DDOT":0},{"OBJECT_NAME":"QIANFAN-202","OBJECT_ID":"2026-153B","EPOCH":"2026-07-20T21:28:25.123008","CLASSIFICATION_TYPE":"U","MEAN_MOTION":14.18844586,"ECCENTRICITY":0.0007348,"INCLINATION":88.9929,"RA_OF_ASC_NODE":358.3994,"ARG_OF_PERICENTER":157.9166,"MEAN_ANOMALY":202.2342,"EPHEMERIS_TYPE":0,"NORAD_CAT_ID":69801,"ELEMENT_SET_NO":999,"REV_AT_EPOCH":235,"BSTAR":0.000074375069,"MEAN_MOTION_DOT":0.00000169,"MEAN_MOTION_DDOT":0},{"OBJECT_NAME":"QIANFAN-203","OBJECT_ID":"2026-153C","EPOCH":"2026-07-20T14:25:43.122720","CLASSIFICATION_TYPE":"U","MEAN_MOTION":14.14863114,"ECCENTRICITY":0.00095801,"INCLINATION":88.9924,"RA_OF_ASC_NODE":358.4301,"ARG_OF_PERICENTER":173.6334,"MEAN_ANOMALY":186.4977,"EPHEMERIS_TYPE":0,"NORAD_CAT_ID":69802,"ELEMENT_SET_NO":999,"REV_AT_EPOCH":231,"BSTAR":-0.98893592,"MEAN_MOTION_DOT":-0.01764202,"MEAN_MOTION_DDOT":0},{"OBJECT_NAME":"QIANFAN-204","OBJECT_ID":"2026-153D","EPOCH":"2026-07-20T21:19:03.031392","CLASSIFICATION_TYPE":"U","MEAN_MOTION":14.20115043,"ECCENTRICITY":0.00083269,"INCLINATION":88.9929,"RA_OF_ASC_NODE":358.3984,"ARG_OF_PERICENTER":161.0633,"MEAN_ANOMALY":199.0868,"EPHEMERIS_TYPE":0,"NORAD_CAT_ID":69803,"ELEMENT_SET_NO":999,"REV_AT_EPOCH":235,"BSTAR":0.000043168483,"MEAN_MOTION_DOT":0.00000106,"MEAN_MOTION_DDOT":0},{"OBJECT_NAME":"QIANFAN-205","OBJECT_ID":"2026-153E","EPOCH":"2026-07-20T21:13:41.299392","CLASSIFICATION_TYPE":"U","MEAN_MOTION":14.18677304,"ECCENTRICITY":0.00087877,"INCLINATION":88.9914,"RA_OF_ASC_NODE":358.3944,"ARG_OF_PERICENTER":169.7444,"MEAN_ANOMALY":190.3926,"EPHEMERIS_TYPE":0,"NORAD_CAT_ID":69804,"ELEMENT_SET_NO":999,"REV_AT_EPOCH":235,"BSTAR":0.000027513669,"MEAN_MOTION_DOT":7.1e-7,"MEAN_MOTION_DDOT":0},{"OBJECT_NAME":"QIANFAN-206","OBJECT_ID":"2026-153F","EPOCH":"2026-07-20T20:54:48.795840","CLASSIFICATION_TYPE":"U","MEAN_MOTION":14.19740763,"ECCENTRICITY":0.00094507,"INCLINATION":88.9908,"RA_OF_ASC_NODE":358.3931,"ARG_OF_PERICENTER":162.3221,"MEAN_ANOMALY":197.8299,"EPHEMERIS_TYPE":0,"NORAD_CAT_ID":69805,"ELEMENT_SET_NO":999,"REV_AT_EPOCH":235,"BSTAR":0.000026479119,"MEAN_MOTION_DOT":7.1e-7,"MEAN_MOTION_DDOT":0},{"OBJECT_NAME":"QIANFAN-207","OBJECT_ID":"2026-153G","EPOCH":"2026-07-20T22:32:08.762784","CLASSIFICATION_TYPE":"U","MEAN_MOTION":14.20766687,"ECCENTRICITY":0.00078899,"INCLINATION":88.9934,"RA_OF_ASC_NODE":358.387,"ARG_OF_PERICENTER":158.3331,"MEAN_ANOMALY":201.8195,"EPHEMERIS_TYPE":0,"NORAD_CAT_ID":69806,"ELEMENT_SET_NO":999,"REV_AT_EPOCH":236,"BSTAR":0.000025481841,"MEAN_MOTION_DOT":6.9e-7,"MEAN_MOTION_DDOT":0}]}
